{
  "type": "FeatureCollection",
  "features": [
    {
      "type": "Feature",
      "properties": {
        "norad_id": 32113,
        "name": "FENGYUN 1C DEB",
        "group": "fengyun-1c-debris",
        "lat": 36.35900988567035,
        "lon": -143.4440464681255,
        "alt_km": 821.0729221927195,
        "timestamp": "2025-12-21T05:44:51.871219+00:00",
        "meta_object_name": "FENGYUN 1C DEB",
        "meta_object_id": "1999-025CRF",
        "meta_epoch": "2025-12-14T19:47:44.837664",
        "meta_mean_motion": 13.94564965,
        "meta_eccentricity": 0.02380847,
        "meta_inclination": 99.0277,
        "meta_ra_of_asc_node": 23.5568,
        "meta_arg_of_pericenter": 220.9453,
        "meta_mean_anomaly": 137.3616,
        "meta_ephemeris_type": 0,
        "meta_classification_type": "U",
        "meta_norad_cat_id": 32113,
        "meta_element_set_no": 999,
        "meta_rev_at_epoch": 62915,
        "meta_bstar": 0.0009179447,
        "meta_mean_motion_dot": 1.508e-05,
        "meta_mean_motion_ddot": 0,
        "tle_line1": "1 32113U 99025CRF 25348.82482451  .00001508  00000+0  91794-3 0  9997",
        "tle_line2": "2 32113  99.0277  23.5568 0238084 220.9453 137.3616 13.94564965629157"
      },
      "geometry": {
        "type": "Point",
        "coordinates": [
          -143.4440464681255,
          36.35900988567035
        ]
      }
    },
    {
      "type": "Feature",
      "properties": {
        "norad_id": 32114,
        "name": "FENGYUN 1C DEB",
        "group": "fengyun-1c-debris",
        "lat": -80.05525839227896,
        "lon": -158.3056994326432,
        "alt_km": 624.2728344304742,
        "timestamp": "2025-12-21T05:44:51.871229+00:00",
        "meta_object_name": "FENGYUN 1C DEB",
        "meta_object_id": "1999-025CRG",
        "meta_epoch": "2025-12-06T13:19:21.641376",
        "meta_mean_motion": 14.76489439,
        "meta_eccentricity": 0.00447682,
        "meta_inclination": 99.9287,
        "meta_ra_of_asc_node": 96.1919,
        "meta_arg_of_pericenter": 3.5911,
        "meta_mean_anomaly": 356.5605,
        "meta_ephemeris_type": 0,
        "meta_classification_type": "U",
        "meta_norad_cat_id": 32114,
        "meta_element_set_no": 999,
        "meta_rev_at_epoch": 65638,
        "meta_bstar": 0.0040574802,
        "meta_mean_motion_dot": 0.0002877,
        "meta_mean_motion_ddot": 0,
        "tle_line1": "1 32114U 99025CRG 25340.55511159  .00028770  00000+0  40575-2 0  9998",
        "tle_line2": "2 32114  99.9287  96.1919 0044768   3.5911 356.5605 14.76489439656383"
      },
      "geometry": {
        "type": "Point",
        "coordinates": [
          -158.3056994326432,
          -80.05525839227896
        ]
      }
    },
    {
      "type": "Feature",
      "properties": {
        "norad_id": 32117,
        "name": "FENGYUN 1C DEB",
        "group": "fengyun-1c-debris",
        "lat": -80.69153863702584,
        "lon": 152.77695822136104,
        "alt_km": 837.2780788674754,
        "timestamp": "2025-12-21T05:44:51.871241+00:00",
        "meta_object_name": "FENGYUN 1C DEB",
        "meta_object_id": "1999-025CRK",
        "meta_epoch": "2025-12-18T02:18:00.201024",
        "meta_mean_motion": 14.23964713,
        "meta_eccentricity": 0.00265666,
        "meta_inclination": 98.6134,
        "meta_ra_of_asc_node": 37.3263,
        "meta_arg_of_pericenter": 76.1616,
        "meta_mean_anomaly": 284.2516,
        "meta_ephemeris_type": 0,
        "meta_classification_type": "U",
        "meta_norad_cat_id": 32117,
        "meta_element_set_no": 999,
        "meta_rev_at_epoch": 94873,
        "meta_bstar": 0.00078657764,
        "meta_mean_motion_dot": 1.768e-05,
        "meta_mean_motion_ddot": 0,
        "tle_line1": "1 32117U 99025CRK 25352.09583566  .00001768  00000+0  78658-3 0  9996",
        "tle_line2": "2 32117  98.6134  37.3263 0026566  76.1616 284.2516 14.23964713948732"
      },
      "geometry": {
        "type": "Point",
        "coordinates": [
          152.77695822136104,
          -80.69153863702584
        ]
      }
    },
    {
      "type": "Feature",
      "properties": {
        "norad_id": 32119,
        "name": "FENGYUN 1C DEB",
        "group": "fengyun-1c-debris",
        "lat": 5.0129840749428585,
        "lon": -142.40170378113243,
        "alt_km": 829.1395381061257,
        "timestamp": "2025-12-21T05:44:51.871251+00:00",
        "meta_object_name": "FENGYUN 1C DEB",
        "meta_object_id": "1999-025CRM",
        "meta_epoch": "2025-12-20T21:09:55.201824",
        "meta_mean_motion": 14.02838107,
        "meta_eccentricity": 0.00860667,
        "meta_inclination": 99.8866,
        "meta_ra_of_asc_node": 218.0869,
        "meta_arg_of_pericenter": 30.5789,
        "meta_mean_anomaly": 330.0352,
        "meta_ephemeris_type": 0,
        "meta_classification_type": "U",
        "meta_norad_cat_id": 32119,
        "meta_element_set_no": 999,
        "meta_rev_at_epoch": 93842,
        "meta_bstar": 0.0005144655,
        "meta_mean_motion_dot": 7.72e-06,
        "meta_mean_motion_ddot": 0,
        "tle_line1": "1 32119U 99025CRM 25354.88188891  .00000772  00000+0  51447-3 0  9990",
        "tle_line2": "2 32119  99.8866 218.0869 0086066  30.5789 330.0352 14.02838107938422"
      },
      "geometry": {
        "type": "Point",
        "coordinates": [
          -142.40170378113243,
          5.0129840749428585
        ]
      }
    },
    {
      "type": "Feature",
      "properties": {
        "norad_id": 32123,
        "name": "FENGYUN 1C DEB",
        "group": "fengyun-1c-debris",
        "lat": -81.04004503139429,
        "lon": -103.1817653978504,
        "alt_km": 583.0836476836475,
        "timestamp": "2025-12-21T05:44:51.871261+00:00",
        "meta_object_name": "FENGYUN 1C DEB",
        "meta_object_id": "1999-025CRR",
        "meta_epoch": "2025-12-20T10:41:44.682720",
        "meta_mean_motion": 14.6148538,
        "meta_eccentricity": 0.01594796,
        "meta_inclination": 98.9414,
        "meta_ra_of_asc_node": 162.8809,
        "meta_arg_of_pericenter": 269.4654,
        "meta_mean_anomaly": 145.7705,
        "meta_ephemeris_type": 0,
        "meta_classification_type": "U",
        "meta_norad_cat_id": 32123,
        "meta_element_set_no": 999,
        "meta_rev_at_epoch": 71487,
        "meta_bstar": 0.00022288476,
        "meta_mean_motion_dot": 1.256e-05,
        "meta_mean_motion_ddot": 0,
        "tle_line1": "1 32123U 99025CRR 25354.44565605  .00001256  00000+0  22288-3 0  9998",
        "tle_line2": "2 32123  98.9414 162.8809 0159479 269.4654 145.7705 14.61485380714879"
      },
      "geometry": {
        "type": "Point",
        "coordinates": [
          -103.1817653978504,
          -81.04004503139429
        ]
      }
    },
    {
      "type": "Feature",
      "properties": {
        "norad_id": 32125,
        "name": "FENGYUN 1C DEB",
        "group": "fengyun-1c-debris",
        "lat": -43.04172717499477,
        "lon": -14.908693051215167,
        "alt_km": 551.5719503581886,
        "timestamp": "2025-12-21T05:44:51.871271+00:00",
        "meta_object_name": "FENGYUN 1C DEB",
        "meta_object_id": "1999-025CRT",
        "meta_epoch": "2025-12-14T04:03:21.187008",
        "meta_mean_motion": 14.69917548,
        "meta_eccentricity": 0.0174033,
        "meta_inclination": 99.062,
        "meta_ra_of_asc_node": 328.6692,
        "meta_arg_of_pericenter": 318.7989,
        "meta_mean_anomaly": 40.0184,
        "meta_ephemeris_type": 0,
        "meta_classification_type": "U",
        "meta_norad_cat_id": 32125,
        "meta_element_set_no": 999,
        "meta_rev_at_epoch": 70544,
        "meta_bstar": 0.002785531,
        "meta_mean_motion_dot": 0.00021057,
        "meta_mean_motion_ddot": 0,
        "tle_line1": "1 32125U 99025CRT 25348.16899522  .00021057  00000+0  27855-2 0  9995",
        "tle_line2": "2 32125  99.0620 328.6692 0174033 318.7989  40.0184 14.69917548705441"
      },
      "geometry": {
        "type": "Point",
        "coordinates": [
          -14.908693051215167,
          -43.04172717499477
        ]
      }
    },
    {
      "type": "Feature",
      "properties": {
        "norad_id": 32126,
        "name": "FENGYUN 1C DEB",
        "group": "fengyun-1c-debris",
        "lat": -45.34008287600643,
        "lon": 41.341830426680396,
        "alt_km": 847.2286727685241,
        "timestamp": "2025-12-21T05:44:51.871281+00:00",
        "meta_object_name": "FENGYUN 1C DEB",
        "meta_object_id": "1999-025CRU",
        "meta_epoch": "2025-12-14T22:11:18.681792",
        "meta_mean_motion": 13.56802944,
        "meta_eccentricity": 0.02807648,
        "meta_inclination": 99.1097,
        "meta_ra_of_asc_node": 224.8335,
        "meta_arg_of_pericenter": 249.9124,
        "meta_mean_anomaly": 107.16,
        "meta_ephemeris_type": 0,
        "meta_classification_type": "U",
        "meta_norad_cat_id": 32126,
        "meta_element_set_no": 999,
        "meta_rev_at_epoch": 61744,
        "meta_bstar": 0.001056147,
        "meta_mean_motion_dot": 9.24e-06,
        "meta_mean_motion_ddot": 0,
        "tle_line1": "1 32126U 99025CRU 25348.92452178  .00000924  00000+0  10561-2 0  9998",
        "tle_line2": "2 32126  99.1097 224.8335 0280764 249.9124 107.1600 13.56802944617445"
      },
      "geometry": {
        "type": "Point",
        "coordinates": [
          41.341830426680396,
          -45.34008287600643
        ]
      }
    }
  ]
}